GLOBALSTAR M035 [-]     
1 25851U 99037A   24101.79598591 -.00000021  00000+0  16182-2 0  9993
2 25851  51.9951 299.2311 0013451   5.1462   7.6031 11.04529336 48487
GLOBALSTAR M032 [-]     
1 25852U 99037B   24102.45145422 -.00000054  00000+0  41296-3 0  9990
2 25852  51.9923 152.7553 0010040 159.7806 200.3393 11.19051034 86517
GLOBALSTAR M051 [-]     
1 25853U 99037C   24102.09070738 -.00000049  00000+0  57160-3 0  9999
2 25853  51.9835   3.2620 0001576 139.3971 220.6957 11.42195140 83034
GLOBALSTAR M030 [-]     
1 25854U 99037D   24101.92789179  .00000008  00000+0  17629-2 0  9996
2 25854  51.9864 197.2478 0003336 359.2216   0.8595 11.55090852100093
GLOBALSTAR M048 [-]     
1 25872U 99041A   24101.77941689 -.00000066  00000+0  11127-3 0  9993
2 25872  51.9362 282.3284 0013943 153.4952 219.5433 11.33844960 75930
GLOBALSTAR M026 [-]     
1 25873U 99041B   24101.67729699 -.00000128  00000+0 -23695-2 0  9990
2 25873  52.0022  62.0022 0001039 254.1615 277.5174 11.06836263100591
GLOBALSTAR M043 [-]     
1 25874U 99041C   24101.91998494 -.00000033  00000+0  10487-2 0  9998
2 25874  51.9444  12.4079 0012554 297.8089 153.3906 11.25677652 74198
GLOBALSTAR M028 [-]     
1 25875U 99041D   24102.23789281 -.00000058  00000+0  27228-3 0  9996
2 25875  51.9647  41.0260 0062991 213.1677 146.5227 12.50553193136166
